start=new Date('2022-03-28T00:00:00.000Z').valueOf();
sats=[{"EPHEMERIS_TYPE":"0","APOAPSIS":"540.512","SITE":"AFETR","MEAN_MOTION_DDOT":"0.0000000000000","BSTAR":"-0.00413230000000","DECAY_DATE":null,"MEAN_ANOMALY":"201.2275","TLE_LINE2":"2 50845  53.2171 175.9625 0001318  63.9522 201.2275 15.08887604  3591","TLE_LINE1":"1 50845U 22001AU  22086.91668981 -.00065540  00000-0 -41323-2 0  9990","SEMIMAJOR_AXIS":"6917.735","LAUNCH_DATE":"2022-01-06","OBJECT_TYPE":"PAYLOAD","ARG_OF_PERICENTER":"63.9522","FILE":"3377053","OBJECT_ID":"2022-001AU","EPOCH":"2022-03-27T22:00:01.999584","RCS_SIZE":"LARGE","NORAD_CAT_ID":"50845","TIME_SYSTEM":"UTC","MEAN_MOTION_DOT":"-0.00065540","ELEMENT_SET_NO":"999","PERIOD":"95.435","MEAN_ELEMENT_THEORY":"SGP4","RA_OF_ASC_NODE":"175.9625","PERIAPSIS":"538.688","REF_FRAME":"TEME","ECCENTRICITY":"0.00013180","REV_AT_EPOCH":"359","OBJECT_NAME":"STARLINK-3230","MEAN_MOTION":"15.08887604","GP_ID":"199865189","INCLINATION":"53.2171","CENTER_NAME":"EARTH","COUNTRY_CODE":"US","CLASSIFICATION_TYPE":"U"},{"CLASSIFICATION_TYPE":"U","MEAN_ELEMENT_THEORY":"SGP4","PERIOD":"95.437","ELEMENT_SET_NO":"999","MEAN_MOTION_DOT":"-0.00038990","REV_AT_EPOCH":"362","OBJECT_NAME":"STARLINK-3308","PERIAPSIS":"538.462","RA_OF_ASC_NODE":"175.9642","ECCENTRICITY":"0.00017850","REF_FRAME":"TEME","INCLINATION":"53.2145","GP_ID":"199865426","MEAN_MOTION":"15.08856038","COUNTRY_CODE":"US","CENTER_NAME":"EARTH","OBJECT_TYPE":"PAYLOAD","LAUNCH_DATE":"2022-01-06","FILE":"3377053","ARG_OF_PERICENTER":"42.3928","OBJECT_ID":"2022-001AV","TIME_SYSTEM":"UTC","NORAD_CAT_ID":"50846","RCS_SIZE":"LARGE","EPOCH":"2022-03-27T22:00:01.999584","EPHEMERIS_TYPE":"0","APOAPSIS":"540.931","SITE":"AFETR","MEAN_MOTION_DDOT":"0.0000000000000","SEMIMAJOR_AXIS":"6917.831","TLE_LINE2":"2 50846  53.2145 175.9642 0001785  42.3928 122.8479 15.08856038  3626","TLE_LINE1":"1 50846U 22001AV  22086.91668981 -.00038990  00000-0 -24439-2 0  9999","MEAN_ANOMALY":"122.8479","DECAY_DATE":null,"BSTAR":"-0.00244390000000"},{"CLASSIFICATION_TYPE":"U","MEAN_MOTION_DOT":"-0.00033900","MEAN_ELEMENT_THEORY":"SGP4","PERIOD":"95.436","ELEMENT_SET_NO":"999","REV_AT_EPOCH":"362","OBJECT_NAME":"STARLINK-3319","RA_OF_ASC_NODE":"175.9806","PERIAPSIS":"538.379","REF_FRAME":"TEME","ECCENTRICITY":"0.00018920","GP_ID":"199864188","MEAN_MOTION":"15.08858685","INCLINATION":"53.2139","CENTER_NAME":"EARTH","COUNTRY_CODE":"US","LAUNCH_DATE":"2022-01-06","OBJECT_TYPE":"PAYLOAD","FILE":"3377053","ARG_OF_PERICENTER":"43.6337","OBJECT_ID":"2022-001AW","EPOCH":"2022-03-27T22:00:01.999584","RCS_SIZE":"LARGE","TIME_SYSTEM":"UTC","NORAD_CAT_ID":"50847","EPHEMERIS_TYPE":"0","SITE":"AFETR","APOAPSIS":"540.997","MEAN_MOTION_DDOT":"0.0000000000000","DECAY_DATE":null,"BSTAR":"-0.00212080000000","SEMIMAJOR_AXIS":"6917.823","TLE_LINE2":"2 50847  53.2139 175.9806 0001892  43.6337 341.4905 15.08858685  3622","TLE_LINE1":"1 50847U 22001AW  22086.91668981 -.00033900  00000-0 -21208-2 0  9997","MEAN_ANOMALY":"341.4905"},{"MEAN_MOTION":"15.08856446","GP_ID":"199864438","INCLINATION":"53.2168","CENTER_NAME":"EARTH","COUNTRY_CODE":"US","MEAN_MOTION_DOT":"-0.00022923","ELEMENT_SET_NO":"999","MEAN_ELEMENT_THEORY":"SGP4","PERIOD":"95.437","RA_OF_ASC_NODE":"175.9635","PERIAPSIS":"538.414","REF_FRAME":"TEME","ECCENTRICITY":"0.00018520","OBJECT_NAME":"STARLINK-3315","REV_AT_EPOCH":"363","CLASSIFICATION_TYPE":"U","MEAN_MOTION_DDOT":"0.0000000000000","BSTAR":"-0.00142610000000","DECAY_DATE":null,"TLE_LINE1":"1 50848U 22001AX  22086.91668981 -.00022923  00000-0 -14261-2 0  9992","TLE_LINE2":"2 50848  53.2168 175.9635 0001852  38.5459 146.6597 15.08856446  3635","MEAN_ANOMALY":"146.6597","SEMIMAJOR_AXIS":"6917.830","EPHEMERIS_TYPE":"0","SITE":"AFETR","APOAPSIS":"540.976","OBJECT_ID":"2022-001AX","EPOCH":"2022-03-27T22:00:01.999584","RCS_SIZE":"LARGE","NORAD_CAT_ID":"50848","TIME_SYSTEM":"UTC","LAUNCH_DATE":"2022-01-06","OBJECT_TYPE":"PAYLOAD","FILE":"3377053","ARG_OF_PERICENTER":"38.5459"},{"BSTAR":"-0.00119580000000","DECAY_DATE":null,"TLE_LINE1":"1 50849U 22001AY  22086.91668981 -.00019279  00000-0 -11958-2 0  9993","TLE_LINE2":"2 50849  53.2144 175.9660 0001991  43.4487  81.7416 15.08858440  3622","MEAN_ANOMALY":"81.7416","SEMIMAJOR_AXIS":"6917.824","MEAN_MOTION_DDOT":"0.0000000000000","APOAPSIS":"541.066","SITE":"AFETR","EPHEMERIS_TYPE":"0","RCS_SIZE":"LARGE","EPOCH":"2022-03-27T22:00:01.999584","NORAD_CAT_ID":"50849","TIME_SYSTEM":"UTC","OBJECT_ID":"2022-001AY","ARG_OF_PERICENTER":"43.4487","FILE":"3377053","LAUNCH_DATE":"2022-01-06","OBJECT_TYPE":"PAYLOAD","CENTER_NAME":"EARTH","COUNTRY_CODE":"US","MEAN_MOTION":"15.08858440","GP_ID":"199865689","INCLINATION":"53.2144","RA_OF_ASC_NODE":"175.9660","PERIAPSIS":"538.312","ECCENTRICITY":"0.00019910","REF_FRAME":"TEME","REV_AT_EPOCH":"362","OBJECT_NAME":"STARLINK-3311","MEAN_MOTION_DOT":"-0.00019279","ELEMENT_SET_NO":"999","MEAN_ELEMENT_THEORY":"SGP4","PERIOD":"95.436","CLASSIFICATION_TYPE":"U"},{"FILE":"3377053","ARG_OF_PERICENTER":"341.4969","OBJECT_TYPE":"PAYLOAD","LAUNCH_DATE":"2022-01-06","TIME_SYSTEM":"UTC","NORAD_CAT_ID":"50850","EPOCH":"2022-03-27T22:00:01.999584","RCS_SIZE":"LARGE","OBJECT_ID":"2022-001AZ","SITE":"AFETR","APOAPSIS":"352.573","EPHEMERIS_TYPE":"0","SEMIMAJOR_AXIS":"6727.876","TLE_LINE2":"2 50850  53.2170 163.0079 0004210 341.4969 146.1244 15.73206872  3700","TLE_LINE1":"1 50850U 22001AZ  22086.91668981  .00036638  00000-0  26416-3 0  9997","MEAN_ANOMALY":"146.1244","DECAY_DATE":null,"BSTAR":"0.00026416000000","MEAN_MOTION_DDOT":"0.0000000000000","CLASSIFICATION_TYPE":"U","OBJECT_NAME":"STARLINK-3312","REV_AT_EPOCH":"370","RA_OF_ASC_NODE":"163.0079","PERIAPSIS":"346.908","ECCENTRICITY":"0.00042100","REF_FRAME":"TEME","PERIOD":"91.533","MEAN_ELEMENT_THEORY":"SGP4","ELEMENT_SET_NO":"999","MEAN_MOTION_DOT":"0.00036638","COUNTRY_CODE":"US","CENTER_NAME":"EARTH","INCLINATION":"53.2170","GP_ID":"199865926","MEAN_MOTION":"15.73206872"},{"MEAN_MOTION_DOT":"-0.00021571","ELEMENT_SET_NO":"999","MEAN_ELEMENT_THEORY":"SGP4","PERIOD":"95.437","PERIAPSIS":"538.454","RA_OF_ASC_NODE":"175.9630","REF_FRAME":"TEME","ECCENTRICITY":"0.00018470","OBJECT_NAME":"STARLINK-3314","REV_AT_EPOCH":"363","MEAN_MOTION":"15.08844421","GP_ID":"199864688","INCLINATION":"53.2152","CENTER_NAME":"EARTH","COUNTRY_CODE":"US","CLASSIFICATION_TYPE":"U","EPHEMERIS_TYPE":"0","APOAPSIS":"541.010","SITE":"AFETR","MEAN_MOTION_DDOT":"0.0000000000000","BSTAR":"-0.00134110000000","DECAY_DATE":null,"TLE_LINE2":"2 50851  53.2152 175.9630 0001847  40.2807 164.9557 15.08844421  3637","MEAN_ANOMALY":"164.9557","TLE_LINE1":"1 50851U 22001BA  22086.91668981 -.00021571  00000-0 -13411-2 0  9990","SEMIMAJOR_AXIS":"6917.867","LAUNCH_DATE":"2022-01-06","OBJECT_TYPE":"PAYLOAD","FILE":"3377053","ARG_OF_PERICENTER":"40.2807","OBJECT_ID":"2022-001BA","EPOCH":"2022-03-27T22:00:01.999584","RCS_SIZE":"LARGE","NORAD_CAT_ID":"50851","TIME_SYSTEM":"UTC"},{"CLASSIFICATION_TYPE":"U","ELEMENT_SET_NO":"999","MEAN_ELEMENT_THEORY":"SGP4","PERIOD":"91.532","MEAN_MOTION_DOT":"-0.00053656","PERIAPSIS":"347.545","RA_OF_ASC_NODE":"298.6099","REF_FRAME":"TEME","ECCENTRICITY":"0.00032170","OBJECT_NAME":"STARLINK-3366","REV_AT_EPOCH":"370","INCLINATION":"53.2124","MEAN_MOTION":"15.73217715","GP_ID":"199866530","CENTER_NAME":"EARTH","COUNTRY_CODE":"US","OBJECT_TYPE":"PAYLOAD","LAUNCH_DATE":"2022-01-19","ARG_OF_PERICENTER":"10.4393","FILE":"3377053","OBJECT_ID":"2022-005A","NORAD_CAT_ID":"51104","TIME_SYSTEM":"UTC","RCS_SIZE":"LARGE","EPOCH":"2022-03-27T22:00:01.999584","EPHEMERIS_TYPE":"0","APOAPSIS":"351.874","SITE":"AFETR","MEAN_MOTION_DDOT":"0.0000000000000","TLE_LINE2":"2 51104  53.2124 298.6099 0003217  10.4393 265.5476 15.73217715  3700","MEAN_ANOMALY":"265.5476","TLE_LINE1":"1 51104U 22005A   22086.91668981 -.00053656  00000-0 -37989-3 0  9992","SEMIMAJOR_AXIS":"6727.845","BSTAR":"-0.00037989000000","DECAY_DATE":null},{"SEMIMAJOR_AXIS":"6727.908","TLE_LINE1":"1 51105U 22005B   22086.91668981 -.00000391  00000-0  16535-5 0  9996","TLE_LINE2":"2 51105  53.2138 298.6232 0003309   8.8535 260.1746 15.73195445  3702","MEAN_ANOMALY":"260.1746","DECAY_DATE":null,"BSTAR":"0.00000165350000","MEAN_MOTION_DDOT":"0.0000000000000","SITE":"AFETR","APOAPSIS":"351.999","EPHEMERIS_TYPE":"0","TIME_SYSTEM":"UTC","NORAD_CAT_ID":"51105","EPOCH":"2022-03-27T22:00:01.999584","RCS_SIZE":"LARGE","OBJECT_ID":"2022-005B","ARG_OF_PERICENTER":"8.8535","FILE":"3377053","OBJECT_TYPE":"PAYLOAD","LAUNCH_DATE":"2022-01-19","COUNTRY_CODE":"US","CENTER_NAME":"EARTH","INCLINATION":"53.2138","GP_ID":"199866421","MEAN_MOTION":"15.73195445","OBJECT_NAME":"STARLINK-3350","REV_AT_EPOCH":"370","PERIAPSIS":"347.547","RA_OF_ASC_NODE":"298.6232","ECCENTRICITY":"0.00033090","REF_FRAME":"TEME","MEAN_ELEMENT_THEORY":"SGP4","PERIOD":"91.533","ELEMENT_SET_NO":"999","MEAN_MOTION_DOT":"-0.00000391","CLASSIFICATION_TYPE":"U"},{"INCLINATION":"53.2134","GP_ID":"199865955","MEAN_MOTION":"15.73244998","COUNTRY_CODE":"US","CENTER_NAME":"EARTH","PERIOD":"91.531","MEAN_ELEMENT_THEORY":"SGP4","ELEMENT_SET_NO":"999","MEAN_MOTION_DOT":"-0.00036698","REV_AT_EPOCH":"367","OBJECT_NAME":"STARLINK-3176","PERIAPSIS":"347.359","ECCENTRICITY":"0.00033790","RA_OF_ASC_NODE":"298.6168","REF_FRAME":"TEME","CLASSIFICATION_TYPE":"U","MEAN_MOTION_DDOT":"0.0000000000000","SEMIMAJOR_AXIS":"6727.767","TLE_LINE2":"2 51106  53.2134 298.6168 0003379  12.0473 260.6802 15.73244998  3674","MEAN_ANOMALY":"260.6802","TLE_LINE1":"1 51106U 22005C   22086.91668981 -.00036698  00000-0 -25758-3 0  9992","DECAY_DATE":null,"BSTAR":"-0.00025758000000","EPHEMERIS_TYPE":"0","APOAPSIS":"351.905","SITE":"AFETR","OBJECT_ID":"2022-005C","TIME_SYSTEM":"UTC","NORAD_CAT_ID":"51106","EPOCH":"2022-03-27T22:00:01.999584","RCS_SIZE":"LARGE","OBJECT_TYPE":"PAYLOAD","LAUNCH_DATE":"2022-01-19","ARG_OF_PERICENTER":"12.0473","FILE":"3377053"}];
